{
  "norad_id": 49458,
  "name": "STARLINK-3156",
  "history": [
    {
      "epoch": "2026-03-28T09:51:46.041120Z",
      "apogee_km": 540.8869745998873,
      "perigee_km": 538.5997849887199,
      "latitude_deg": 3.6361786955150086e-05,
      "longitude_deg": 161.3054029414397,
      "height_km": 540.6463267666804,
      "semi_major_axis_km": 6917.880379794303,
      "eccentricity": 0.00016531,
      "inclination_deg": 53.2165,
      "raan_deg": 135.079,
      "arg_perigee_deg": 90.3885,
      "mean_anomaly_deg": 269.7297,
      "mean_motion_rev_day": 15.08840003
    },
    {
      "epoch": "2026-03-29T03:21:00.729792Z",
      "apogee_km": 540.8093737397721,
      "perigee_km": 538.7049503356811,
      "latitude_deg": -2.9956426672746206e-05,
      "longitude_deg": -104.9951318819214,
      "height_km": 540.6331351634005,
      "semi_major_axis_km": 6917.894162037726,
      "eccentricity": 0.0001521,
      "inclination_deg": 53.2161,
      "raan_deg": 131.8079,
      "arg_perigee_deg": 88.945,
      "mean_anomaly_deg": 271.1716,
      "mean_motion_rev_day": 15.08835494
    },
    {
      "epoch": "2026-03-30T03:11:47.800896Z",
      "apogee_km": 540.7772908177449,
      "perigee_km": 538.7282118733956,
      "latitude_deg": -5.810460041719188e-05,
      "longitude_deg": -108.13141902401169,
      "height_km": 540.613958891564,
      "semi_major_axis_km": 6917.8897513455695,
      "eccentricity": 0.0001481,
      "inclination_deg": 53.2162,
      "raan_deg": 127.3471,
      "arg_perigee_deg": 88.0864,
      "mean_anomaly_deg": 272.0297,
      "mean_motion_rev_day": 15.08836937
    },
    {
      "epoch": "2026-03-30T03:11:47.801760Z",
      "apogee_km": 540.7770141021529,
      "perigee_km": 538.7284885889858,
      "latitude_deg": -5.4413341901554915e-05,
      "longitude_deg": -108.13141988922094,
      "height_km": 540.6139681312371,
      "semi_major_axis_km": 6917.8897513455695,
      "eccentricity": 0.00014806,
      "inclination_deg": 53.2162,
      "raan_deg": 127.3471,
      "arg_perigee_deg": 88.0864,
      "mean_anomaly_deg": 272.0297,
      "mean_motion_rev_day": 15.08836937
    }
  ]
}